NORAD_CAT_ID,OBJECT_NAME,OBJECT_TYPE,EPOCH,MEAN_MOTION,ECCENTRICITY,INCLINATION,RA_OF_ASC_NODE,ARG_OF_PERICENTER,MEAN_ANOMALY,BSTAR,MEAN_MOTION_DOT,MEAN_MOTION_DDOT,TLE_LINE0,TLE_LINE1,TLE_LINE2,SEMIMAJOR_AXIS,PERIOD,APOGEE,PERIGEE,DECAYED
55937.0,STARLINK-5913,PAYLOAD,2024-04-17 18:06:20,14.98338002,0.0002568,70.0025,226.5954,260.5696,99.5172,-0.00016373,-2.046e-05,0.0,0 STARLINK-5913,1 55937U 23037Z   24108.75440511 -.00002046  00000-0 -16373-3 0  9993,2 55937  70.0025 226.5954 0002568 260.5696  99.5172 14.98338002 60820,6950.168,96.106,573.818,570.248,0.0
55937.0,STARLINK-5913,PAYLOAD,2024-04-18 13:19:58,14.98317802,0.0002367,70.0027,224.5762,260.508,99.5812,9.5612e-07,-8.1e-07,0.0,0 STARLINK-5913,1 55937U 23037Z   24109.55553694 -.00000081  00000-0  95612-6 0  9991,2 55937  70.0027 224.5762 0002367 260.5080  99.5812 14.98317802 60940,6950.231,96.108,573.741,570.45,0.0
55937.0,STARLINK-5913,PAYLOAD,2024-04-18 18:08:22,14.98318615,0.0002481,70.0026,224.0717,249.3729,110.7164,1.2661e-05,5.8e-07,0.0,0 STARLINK-5913,1 55937U 23037Z   24109.75581700  .00000058  00000-0  12661-4 0  9996,2 55937  70.0026 224.0717 0002481 249.3729 110.7164 14.98318615 60631,6950.228,96.108,573.817,570.369,0.0
55937.0,STARLINK-5913,PAYLOAD,2024-04-19 10:09:42,14.98326306,0.0002728,70.0018,222.3871,254.545,105.5408,4.0778e-06,-4.4e-07,0.0,0 STARLINK-5913,1 55937U 23037Z   24110.42341433 -.00000044  00000-0  40778-5 0  9996,2 55937  70.0018 222.3871 0002728 254.5450 105.5408 14.98326306 61075,6950.204,96.107,573.965,570.173,0.0
55937.0,STARLINK-5913,PAYLOAD,2024-04-19 18:10:22,14.98334688,0.0002626,70.0004,221.5421,257.8508,102.2357,6.5923e-05,6.94e-06,0.0,0 STARLINK-5913,1 55937U 23037Z   24110.75720696  .00000694  00000-0  65923-4 0  9992,2 55937  70.0004 221.5421 0002626 257.8508 102.2357 14.98334688 61124,6950.178,96.107,573.869,570.218,0.0
55937.0,STARLINK-5913,PAYLOAD,2024-04-20 11:47:54,14.98292986,0.0002422,70.0022,219.6948,249.4689,110.621,-0.00033127,-4.039e-05,0.0,0 STARLINK-5913,1 55937U 23037Z   24111.49159873 -.00004039  00000-0 -33127-3 0  9996,2 55937  70.0022 219.6948 0002422 249.4689 110.6210 14.98292986 61234,6950.307,96.109,573.856,570.489,0.0
55937.0,STARLINK-5913,PAYLOAD,2024-04-20 13:24:02,14.98295558,0.0002607,70.0019,219.5264,248.8658,111.2223,-0.00033552,-4.09e-05,0.0,0 STARLINK-5913,1 55937U 23037Z   24111.55835783 -.00004090  00000-0 -33552-3 0  9993,2 55937  70.0019 219.5264 0002607 248.8658 111.2223 14.98295558 60906,6950.299,96.109,573.976,570.352,0.0
55937.0,STARLINK-5913,PAYLOAD,2024-04-20 16:36:18,14.98291552,0.0002761,70.0012,219.1895,269.2414,90.8429,-0.00038285,-4.653e-05,0.0,0 STARLINK-5913,1 55937U 23037Z   24111.69188549 -.00004653  00000-0 -38285-3 0  9992,2 55937  70.0012 219.1895 0002761 269.2414  90.8429 14.98291552 60925,6950.312,96.109,574.096,570.258,0.0
55937.0,STARLINK-5913,PAYLOAD,2024-04-21 10:13:47,14.98304832,0.0002752,70.0012,217.3351,269.0851,90.9993,-0.00028466,-3.485e-05,0.0,0 STARLINK-5913,1 55937U 23037Z   24112.42624714 -.00003485  00000-0 -28466-3 0  9995,2 55937  70.0012 217.3351 0002752 269.0851  90.9993 14.98304832 61031,6950.271,96.109,574.048,570.223,0.0
55937.0,STARLINK-5913,PAYLOAD,2024-04-21 16:38:19,14.98316052,0.0002743,70.0035,216.6681,266.4185,93.666,-3.8632e-05,-5.54e-06,0.0,0 STARLINK-5913,1 55937U 23037Z   24112.69327638 -.00000554  00000-0 -38632-4 0  9990,2 55937  70.0035 216.6681 0002743 266.4185  93.6660 14.98316052 61415,6950.236,96.108,574.007,570.195,0.0
55937.0,STARLINK-5913,PAYLOAD,2024-04-22 10:15:45,14.98344254,0.0003008,70.0023,214.8117,272.0688,88.0127,1.6618e-05,1.05e-06,0.0,0 STARLINK-5913,1 55937U 23037Z   24113.42761494  .00000105  00000-0  16618-4 0  9994,2 55937  70.0023 214.8117 0003008 272.0688  88.0127 14.98344254 61525,6950.149,96.106,574.104,569.923,0.0
55937.0,STARLINK-5913,PAYLOAD,2024-04-22 16:40:16,14.98356084,0.0002439,70.0028,214.1399,253.8429,106.2462,0.00013625,1.534e-05,0.0,0 STARLINK-5913,1 55937U 23037Z   24113.69464114  .00001534  00000-0  13625-3 0  9993,2 55937  70.0028 214.1399 0002439 253.8429 106.2462 14.98356084 61565,6950.112,96.105,573.672,570.282,0.0
55937.0,STARLINK-5913,PAYLOAD,2024-04-23 10:17:47,14.9832664,0.0002801,70.0051,212.2973,242.628,117.4595,0.00015952,1.811e-05,0.0,0 STARLINK-5913,1 55937U 23037Z   24114.42902201  .00001811  00000-0  15952-3 0  9992,2 55937  70.0051 212.2973 0002801 242.6280 117.4595 14.98326640 61670,6950.203,96.107,574.015,570.122,0.0
55937.0,STARLINK-5913,PAYLOAD,2024-04-23 13:30:03,14.98330808,0.0002678,70.0034,211.9572,227.6682,132.425,0.00015161,1.717e-05,0.0,0 STARLINK-5913,1 55937U 23037Z   24114.56253893  .00001717  00000-0  15161-3 0  9990,2 55937  70.0034 211.9572 0002678 227.6682 132.4250 14.98330808 61354,6950.19,96.107,573.917,570.194,0.0
55937.0,STARLINK-5913,PAYLOAD,2024-04-23 16:42:19,14.98332899,0.00026,70.0016,211.616,253.0005,107.0869,0.00017079,1.946e-05,0.0,0 STARLINK-5913,1 55937U 23037Z   24114.69605733  .00001946  00000-0  17079-3 0  9992,2 55937  70.0016 211.6160 0002600 253.0005 107.0869 14.98332899 61379,6950.184,96.107,573.856,570.242,0.0
55937.0,STARLINK-5913,PAYLOAD,2024-04-24 05:31:24,14.98341381,0.000175,70.0037,210.2694,257.7658,102.3305,-0.00014039,-1.768e-05,0.0,0 STARLINK-5913,1 55937U 23037Z   24115.23014004 -.00001768  00000-0 -14039-3 0  9995,2 55937  70.0037 210.2694 0001750 257.7658 102.3305 14.98341381 61794,6950.158,96.106,573.239,570.806,0.0
55937.0,STARLINK-5913,PAYLOAD,2024-04-24 13:32:04,14.98336033,0.0002155,70.003,209.4271,251.3282,108.7643,-0.00019568,-2.427e-05,0.0,0 STARLINK-5913,1 55937U 23037Z   24115.56394209 -.00002427  00000-0 -19568-3 0  9994,2 55937  70.0030 209.4271 0002155 251.3282 108.7643 14.98336033 61503,6950.174,96.107,573.537,570.541,0.0
55937.0,STARLINK-5913,PAYLOAD,2024-04-24 15:08:12,14.98336664,0.0002101,70.0031,209.259,247.6975,112.3962,-0.00017873,-2.225e-05,0.0,0 STARLINK-5913,1 55937U 23037Z   24115.63070084 -.00002225  00000-0 -17873-3 0  9997,2 55937  70.0031 209.2590 0002101 247.6975 112.3962 14.98336664 61510,6950.172,96.107,573.498,570.577,0.0
55937.0,STARLINK-5913,PAYLOAD,2024-04-25 13:34:05,14.98329104,0.0002553,70.0018,206.9018,252.3903,107.6977,-1.128e-05,-2.27e-06,0.0,0 STARLINK-5913,1 55937U 23037Z   24116.56533739 -.00000227  00000-0 -11280-4 0  9998,2 55937  70.0018 206.9018 0002553 252.3903 107.6977 14.98329104 61658,6950.196,96.107,573.835,570.286,0.0
55937.0,STARLINK-5913,PAYLOAD,2024-04-25 15:10:13,14.98329992,0.0002504,70.002,206.7339,249.1593,110.9298,-1.7034e-07,-9.5e-07,0.0,0 STARLINK-5913,1 55937U 23037Z   24116.63209644 -.00000095  00000-0 -17034-6 0  9999,2 55937  70.0020 206.7339 0002504 249.1593 110.9298 14.98329992 62008,6950.193,96.107,573.798,570.318,0.0
55937.0,STARLINK-5913,PAYLOAD,2024-04-26 13:36:05,14.98330952,0.0002638,70.0009,204.3752,263.6196,96.4663,5.3503e-05,5.46e-06,0.0,0 STARLINK-5913,1 55937U 23037Z   24117.56673445  .00000546  00000-0  53503-4 0  9994,2 55937  70.0009 204.3752 0002638 263.6196  96.4663 14.98330952 61805,6950.19,96.107,573.888,570.221,0.0
55937.0,STARLINK-5913,PAYLOAD,2024-04-27 12:01:57,14.98348527,0.000322,69.9999,202.0192,270.9234,89.1556,0.0001678,1.911e-05,0.0,0 STARLINK-5913,1 55937U 23037Z   24118.50135559  .00001911  00000-0  16780-3 0  9990,2 55937  69.9999 202.0192 0003220 270.9234  89.1556 14.98348527 62285,6950.136,96.106,574.239,569.763,0.0
55937.0,STARLINK-5913,PAYLOAD,2024-04-27 13:38:05,14.98349044,0.000309,70.0002,201.851,270.1886,89.8919,0.00017585,2.007e-05,0.0,0 STARLINK-5913,1 55937U 23037Z   24118.56811417  .00002007  00000-0  17585-3 0  9991,2 55937  70.0002 201.8510 0003090 270.1886  89.8919 14.98349044 61952,6950.134,96.106,574.147,569.851,0.0
55937.0,STARLINK-5913,PAYLOAD,2024-04-27 15:14:12,14.98350165,0.000306,70.0006,201.683,270.3501,89.7307,0.00020153,2.314e-05,0.0,0 STARLINK-5913,1 55937U 23037Z   24118.63487208  .00002314  00000-0  20153-3 0  9992,2 55937  70.0006 201.6830 0003060 270.3501  89.7307 14.98350165 61969,6950.131,96.106,574.122,569.869,0.0
55937.0,STARLINK-5913,PAYLOAD,2024-04-28 05:39:28,14.98318543,0.0002971,70.0,200.1662,271.5715,88.5103,-0.00018838,-2.339e-05,0.0,0 STARLINK-5913,1 55937U 23037Z   24119.23574382 -.00002339  00000-0 -18838-3 0  9995,2 55937  70.0000 200.1662 0002971 271.5715  88.5103 14.98318543 62393,6950.228,96.108,574.158,570.028,0.0
55937.0,STARLINK-5913,PAYLOAD,2024-04-28 13:40:09,14.98314562,0.0002992,70.0002,199.3257,270.4324,89.6492,-0.00021981,-2.714e-05,0.0,0 STARLINK-5913,1 55937U 23037Z   24119.56954952 -.00002714  00000-0 -21981-3 0  9996,2 55937  70.0002 199.3257 0002992 270.4324  89.6492 14.98314562 62100,6950.241,96.108,574.185,570.026,0.0
55937.0,STARLINK-5913,PAYLOAD,2024-04-28 15:16:17,14.98315111,0.0002972,70.0003,199.1576,270.2191,89.8628,-0.00021112,-2.61e-05,0.0,0 STARLINK-5913,1 55937U 23037Z   24119.63630951 -.00002610  00000-0 -21112-3 0  9995,2 55937  70.0003 199.1576 0002972 270.2191  89.8628 14.98315111 62116,6950.239,96.108,574.17,570.038,0.0
55937.0,STARLINK-5913,PAYLOAD,2024-04-29 04:05:21,14.98323582,0.0003132,69.9998,197.8105,270.4342,89.6458,-0.00016931,-2.112e-05,0.0,0 STARLINK-5913,1 55937U 23037Z   24120.17038572 -.00002112  00000-0 -16931-3 0  9997,2 55937  69.9998 197.8105 0003132 270.4342  89.6458 14.98323582 62534,6950.213,96.107,574.255,569.901,0.0
55937.0,STARLINK-5913,PAYLOAD,2024-04-29 12:06:01,14.98331784,0.0003032,70.0002,196.9703,267.8254,92.2558,-0.00011533,-1.469e-05,0.0,0 STARLINK-5913,1 55937U 23037Z   24120.50418000 -.00001469  00000-0 -11533-3 0  9999,2 55937  70.0002 196.9703 0003032 267.8254  92.2558 14.98331784 62587,6950.187,96.107,574.16,569.945,0.0
55937.0,STARLINK-5913,PAYLOAD,2024-04-29 13:42:09,14.98335369,0.0003052,70.0,196.8014,269.6549,90.426,-0.00012894,-1.631e-05,0.0,0 STARLINK-5913,1 55937U 23037Z   24120.57093806 -.00001631  00000-0 -12894-3 0  9991,2 55937  70.0000 196.8014 0003052 269.6549  90.4260 14.98335369 62255,6950.176,96.107,574.162,569.92,0.0
